{
    "links": {
        "self": "http://www.neowsapp.com/rest/v1/neo/3589133?api_key=iIulBulltgU6a56xZRHN4H3l9WmuAYTsLGpBGhQ2"
    },
    "id": "3589133",
    "neo_reference_id": "3589133",
    "name": "(2011 WP41)",
    "designation": "2011 WP41",
    "nasa_jpl_url": "http://ssd.jpl.nasa.gov/sbdb.cgi?sstr=3589133",
    "absolute_magnitude_h": 24.2,
    "estimated_diameter": {
        "kilometers": {
            "estimated_diameter_min": 0.0384197891,
            "estimated_diameter_max": 0.0859092601
        },
        "meters": {
            "estimated_diameter_min": 38.4197891064,
            "estimated_diameter_max": 85.9092601232
        },
        "miles": {
            "estimated_diameter_min": 0.0238729428,
            "estimated_diameter_max": 0.0533815229
        },
        "feet": {
            "estimated_diameter_min": 126.0491808919,
            "estimated_diameter_max": 281.8545369825
        }
    },
    "is_potentially_hazardous_asteroid": false,
    "close_approach_data": [
        {
            "close_approach_date": "2011-11-04",
            "close_approach_date_full": "2011-Nov-04 20:34",
            "epoch_date_close_approach": 1320438840000,
            "relative_velocity": {
                "kilometers_per_second": "12.4767972247",
                "kilometers_per_hour": "44916.4700087602",
                "miles_per_hour": "27909.3477118321"
            },
            "miss_distance": {
                "astronomical": "0.0735827031",
                "lunar": "28.6236715059",
                "kilometers": "11007815.652602397",
                "miles": "6839939.4743191986"
            },
            "orbiting_body": "Earth"
        }
    ],
    "orbital_data": {
        "orbit_id": "5",
        "orbit_determination_date": "2017-04-06 08:51:55",
        "first_observation_date": "2011-11-24",
        "last_observation_date": "2011-11-30",
        "data_arc_in_days": 6,
        "observations_used": 24,
        "orbit_uncertainty": "9",
        "minimum_orbit_intersection": ".0677739",
        "jupiter_tisserand_invariant": "3.684",
        "epoch_osculation": "2455891.5",
        "eccentricity": ".5402303206959255",
        "semi_major_axis": "1.94445370496588",
        "inclination": "11.48254832559271",
        "ascending_node_longitude": "61.30949989255095",
        "orbital_period": "990.3639840794409",
        "perihelion_distance": ".8940008563537823",
        "perihelion_argument": "292.4543709567893",
        "aphelion_distance": "2.994906553577978",
        "perihelion_time": "2455832.981029194610",
        "mean_anomaly": "21.27180494101101",
        "mean_motion": ".3635027179775986",
        "equinox": "J2000",
        "orbit_class": {
            "orbit_class_type": "APO",
            "orbit_class_description": "Near-Earth asteroid orbits which cross the Earth’s orbit similar to that of 1862 Apollo",
            "orbit_class_range": "a (semi-major axis) > 1.0 AU; q (perihelion) < 1.017 AU"
        }
    },
    "is_sentry_object": false
}